[{"OBJECT_NAME":"COSMOS 2251 DEB","OBJECT_ID":"1993-036ACB","EPOCH":"2026-03-07T02:12:55.649664","MEAN_MOTION":14.59719335,"ECCENTRICITY":0.00635516,"INCLINATION":74.015,"RA_OF_ASC_NODE":305.8254,"ARG_OF_PERICENTER":48.765,"MEAN_ANOMALY":100.9468,"EPHEMERIS_TYPE":0,"CLASSIFICATION_TYPE":"U","NORAD_CAT_ID":34857,"ELEMENT_SET_NO":999,"REV_AT_EPOCH":89131,"BSTAR":0.00079886222,"MEAN_MOTION_DOT":3.891e-5,"MEAN_MOTION_DDOT":0},{"OBJECT_NAME":"COSMOS 2251 DEB","OBJECT_ID":"1993-036ACD","EPOCH":"2026-03-07T07:09:06.536448","MEAN_MOTION":15.33262094,"ECCENTRICITY":0.0015321,"INCLINATION":74.0269,"RA_OF_ASC_NODE":161.8568,"ARG_OF_PERICENTER":324.8061,"MEAN_ANOMALY":35.213,"EPHEMERIS_TYPE":0,"CLASSIFICATION_TYPE":"U","NORAD_CAT_ID":34859,"ELEMENT_SET_NO":999,"REV_AT_EPOCH":89645,"BSTAR":0.0096126,"MEAN_MOTION_DOT":0.00323594,"MEAN_MOTION_DDOT":0},{"OBJECT_NAME":"COSMOS 2251 DEB","OBJECT_ID":"1993-036ACF","EPOCH":"2026-03-07T12:22:14.759040","MEAN_MOTION":15.13324054,"ECCENTRICITY":0.0002279,"INCLINATION":74.0138,"RA_OF_ASC_NODE":236.2825,"ARG_OF_PERICENTER":255.1647,"MEAN_ANOMALY":167.8643,"EPHEMERIS_TYPE":0,"CLASSIFICATION_TYPE":"U","NORAD_CAT_ID":34861,"ELEMENT_SET_NO":999,"REV_AT_EPOCH":89370,"BSTAR":0.003823681,"MEAN_MOTION_DOT":0.0006876,"MEAN_MOTION_DDOT":0},{"OBJECT_NAME":"COSMOS 2251 DEB","OBJECT_ID":"1993-036ACM","EPOCH":"2026-03-05T22:34:04.170720","MEAN_MOTION":14.36836198,"ECCENTRICITY":0.00519236,"INCLINATION":74.0371,"RA_OF_ASC_NODE":280.8979,"ARG_OF_PERICENTER":285.8365,"MEAN_ANOMALY":137.926,"EPHEMERIS_TYPE":0,"CLASSIFICATION_TYPE":"U","NORAD_CAT_ID":34874,"ELEMENT_SET_NO":999,"REV_AT_EPOCH":88239,"BSTAR":0.0007165588,"MEAN_MOTION_DOT":2.124e-5,"MEAN_MOTION_DDOT":0},{"OBJECT_NAME":"COSMOS 2251 DEB","OBJECT_ID":"1993-036ACN","EPOCH":"2026-03-07T13:56:16.021536","MEAN_MOTION":14.49270253,"ECCENTRICITY":0.00139715,"INCLINATION":74.0479,"RA_OF_ASC_NODE":359.2121,"ARG_OF_PERICENTER":105.7301,"MEAN_ANOMALY":73.7543,"EPHEMERIS_TYPE":0,"CLASSIFICATION_TYPE":"U","NORAD_CAT_ID":34875,"ELEMENT_SET_NO":999,"REV_AT_EPOCH":88984,"BSTAR":0.00060417199,"MEAN_MOTION_DOT":2.28e-5,"MEAN_MOTION_DDOT":0},{"OBJECT_NAME":"COSMOS 2251 DEB","OBJECT_ID":"1993-036ACR","EPOCH":"2026-03-05T23:00:50.256864","MEAN_MOTION":13.44296723,"ECCENTRICITY":0.04353573,"INCLINATION":73.9624,"RA_OF_ASC_NODE":275.2706,"ARG_OF_PERICENTER":242.9276,"MEAN_ANOMALY":185.011,"EPHEMERIS_TYPE":0,"CLASSIFICATION_TYPE":"U","NORAD_CAT_ID":34878,"ELEMENT_SET_NO":999,"REV_AT_EPOCH":82391,"BSTAR":0.00033949278,"MEAN_MOTION_DOT":3.25e-6,"MEAN_MOTION_DDOT":0},{"OBJECT_NAME":"COSMOS 2251 DEB","OBJECT_ID":"1993-036ACV","EPOCH":"2026-03-06T09:59:52.718496","MEAN_MOTION":14.61783492,"ECCENTRICITY":0.00827149,"INCLINATION":74.044,"RA_OF_ASC_NODE":65.5733,"ARG_OF_PERICENTER":173.0385,"MEAN_ANOMALY":187.1953,"EPHEMERIS_TYPE":0,"CLASSIFICATION_TYPE":"U","NORAD_CAT_ID":34882,"ELEMENT_SET_NO":999,"REV_AT_EPOCH":89747,"BSTAR":0.00018105622,"MEAN_MOTION_DOT":9.16e-6,"MEAN_MOTION_DDOT":0},{"OBJECT_NAME":"COSMOS 2251 DEB","OBJECT_ID":"1993-036ACW","EPOCH":"2026-03-07T12:56:39.357888","MEAN_MOTION":14.54189482,"ECCENTRICITY":0.0091405,"INCLINATION":74.1971,"RA_OF_ASC_NODE":264.3214,"ARG_OF_PERICENTER":62.8257,"MEAN_ANOMALY":298.2187,"EPHEMERIS_TYPE":0,"CLASSIFICATION_TYPE":"U","NORAD_CAT_ID":34883,"ELEMENT_SET_NO":999,"REV_AT_EPOCH":87671,"BSTAR":0.0053694546,"MEAN_MOTION_DOT":0.00024083,"MEAN_MOTION_DDOT":0},{"OBJECT_NAME":"COSMOS 2251 DEB","OBJECT_ID":"1993-036ACX","EPOCH":"2026-03-07T13:45:37.351008","MEAN_MOTION":14.95384356,"ECCENTRICITY":0.00037656,"INCLINATION":74.013,"RA_OF_ASC_NODE":246.0525,"ARG_OF_PERICENTER":302.576,"MEAN_ANOMALY":116.7432,"EPHEMERIS_TYPE":0,"CLASSIFICATION_TYPE":"U","NORAD_CAT_ID":34884,"ELEMENT_SET_NO":999,"REV_AT_EPOCH":89071,"BSTAR":0.0037628795,"MEAN_MOTION_DOT":0.0004178,"MEAN_MOTION_DDOT":0},{"OBJECT_NAME":"COSMOS 2251 DEB","OBJECT_ID":"1993-036ACY","EPOCH":"2026-03-07T07:35:05.955360","MEAN_MOTION":14.52081491,"ECCENTRICITY":0.0012249,"INCLINATION":74.0335,"RA_OF_ASC_NODE":23.6936,"ARG_OF_PERICENTER":93.5049,"MEAN_ANOMALY":56.7303,"EPHEMERIS_TYPE":0,"CLASSIFICATION_TYPE":"U","NORAD_CAT_ID":34885,"ELEMENT_SET_NO":999,"REV_AT_EPOCH":88706,"BSTAR":0.0011044,"MEAN_MOTION_DOT":4.449e-5,"MEAN_MOTION_DDOT":0},{"OBJECT_NAME":"COSMOS 2251 DEB","OBJECT_ID":"1993-036ACZ","EPOCH":"2026-03-07T11:17:27.921984","MEAN_MOTION":15.60404719,"ECCENTRICITY":0.00261858,"INCLINATION":73.949,"RA_OF_ASC_NODE":354.7739,"ARG_OF_PERICENTER":167.9402,"MEAN_ANOMALY":192.245,"EPHEMERIS_TYPE":0,"CLASSIFICATION_TYPE":"U","NORAD_CAT_ID":34886,"ELEMENT_SET_NO":999,"REV_AT_EPOCH":64309,"BSTAR":0.0034968309,"MEAN_MOTION_DOT":0.00302477,"MEAN_MOTION_DDOT":0},{"OBJECT_NAME":"COSMOS 2251 DEB","OBJECT_ID":"1993-036ADD","EPOCH":"2026-03-07T10:06:15.757344","MEAN_MOTION":14.37752124,"ECCENTRICITY":0.00411564,"INCLINATION":74.0554,"RA_OF_ASC_NODE":227.9973,"ARG_OF_PERICENTER":226.3573,"MEAN_ANOMALY":162.3331,"EPHEMERIS_TYPE":0,"CLASSIFICATION_TYPE":"U","NORAD_CAT_ID":34908,"ELEMENT_SET_NO":999,"REV_AT_EPOCH":88496,"BSTAR":0.00089118012,"MEAN_MOTION_DOT":2.683e-5,"MEAN_MOTION_DDOT":0},{"OBJECT_NAME":"COSMOS 2251 DEB","OBJECT_ID":"1993-036ADE","EPOCH":"2026-03-06T13:18:34.398720","MEAN_MOTION":14.78522739,"ECCENTRICITY":0.00824616,"INCLINATION":74.0111,"RA_OF_ASC_NODE":271.7027,"ARG_OF_PERICENTER":24.705,"MEAN_ANOMALY":335.8039,"EPHEMERIS_TYPE":0,"CLASSIFICATION_TYPE":"U","NORAD_CAT_ID":34909,"ELEMENT_SET_NO":999,"REV_AT_EPOCH":68090,"BSTAR":0.00049721627,"MEAN_MOTION_DOT":3.811e-5,"MEAN_MOTION_DDOT":0},{"OBJECT_NAME":"COSMOS 2251 DEB","OBJECT_ID":"1993-036ADF","EPOCH":"2026-03-07T03:51:33.684192","MEAN_MOTION":13.37828322,"ECCENTRICITY":0.04658687,"INCLINATION":73.8771,"RA_OF_ASC_NODE":328.1931,"ARG_OF_PERICENTER":72.6055,"MEAN_ANOMALY":74.0569,"EPHEMERIS_TYPE":0,"CLASSIFICATION_TYPE":"U","NORAD_CAT_ID":34910,"ELEMENT_SET_NO":999,"REV_AT_EPOCH":82653,"BSTAR":0.00097848345,"MEAN_MOTION_DOT":9.47e-6,"MEAN_MOTION_DDOT":0},{"OBJECT_NAME":"COSMOS 2251 DEB","OBJECT_ID":"1993-036ADG","EPOCH":"2026-03-07T12:05:48.606720","MEAN_MOTION":14.59516757,"ECCENTRICITY":0.00840272,"INCLINATION":74.0387,"RA_OF_ASC_NODE":83.1754,"ARG_OF_PERICENTER":188.8626,"MEAN_ANOMALY":324.5598,"EPHEMERIS_TYPE":0,"CLASSIFICATION_TYPE":"U","NORAD_CAT_ID":34911,"ELEMENT_SET_NO":999,"REV_AT_EPOCH":89823,"BSTAR":0.00014920615,"MEAN_MOTION_DOT":7.12e-6,"MEAN_MOTION_DDOT":0},{"OBJECT_NAME":"COSMOS 2251 DEB","OBJECT_ID":"1993-036ADJ","EPOCH":"2026-03-06T20:51:22.054464","MEAN_MOTION":14.34666265,"ECCENTRICITY":0.00218963,"INCLINATION":74.0277,"RA_OF_ASC_NODE":128.3247,"ARG_OF_PERICENTER":223.3864,"MEAN_ANOMALY":256.2288,"EPHEMERIS_TYPE":0,"CLASSIFICATION_TYPE":"U","NORAD_CAT_ID":34913,"ELEMENT_SET_NO":999,"REV_AT_EPOCH":66394,"BSTAR":6.2821317e-5,"MEAN_MOTION_DOT":1.52e-6,"MEAN_MOTION_DDOT":0}]
