COSMOS 2251 DEB         
1 34857U 93036ACB 26066.09231076  .00003891  00000+0  79886-3 0  9997
2 34857  74.0150 305.8254 0063551  48.7650 100.9468 14.59719335891310
COSMOS 2251 DEB         
1 34859U 93036ACD 26066.29799232  .00323594  00000+0  96126-2 0  9994
2 34859  74.0269 161.8568 0015321 324.8061  35.2130 15.33262094896451
COSMOS 2251 DEB         
1 34861U 93036ACF 26066.51544860  .00068760  00000+0  38237-2 0  9997
2 34861  74.0138 236.2825 0002279 255.1647 167.8643 15.13324054893705
COSMOS 2251 DEB         
1 34874U 93036ACM 26064.94032605  .00002124  00000+0  71656-3 0  9990
2 34874  74.0371 280.8979 0051923 285.8365 137.9260 14.36836198882397
COSMOS 2251 DEB         
1 34875U 93036ACN 26066.58074099  .00002280  00000+0  60417-3 0  9992
2 34875  74.0479 359.2121 0013971 105.7301  73.7543 14.49270253889844
COSMOS 2251 DEB         
1 34878U 93036ACR 26064.95891501  .00000325  00000+0  33949-3 0  9997
2 34878  73.9624 275.2706 0435357 242.9276 185.0110 13.44296723823911
COSMOS 2251 DEB         
1 34882U 93036ACV 26065.41658239  .00000916  00000+0  18106-3 0  9997
2 34882  74.0440  65.5733 0082714 173.0385 187.1953 14.61783492897478
COSMOS 2251 DEB         
1 34883U 93036ACW 26066.53934442  .00024083  00000+0  53695-2 0  9997
2 34883  74.1971 264.3214 0091405  62.8257 298.2187 14.54189482876710
COSMOS 2251 DEB         
1 34884U 93036ACX 26066.57334897  .00041780  00000+0  37629-2 0  9992
2 34884  74.0130 246.0525 0003765 302.5760 116.7432 14.95384356890719
COSMOS 2251 DEB         
1 34885U 93036ACY 26066.31604115  .00004449  00000+0  11044-2 0  9992
2 34885  74.0335  23.6936 0012249  93.5049  56.7303 14.52081491887067
COSMOS 2251 DEB         
1 34886U 93036ACZ 26066.47046206  .00302477  00000+0  34968-2 0  9993
2 34886  73.9490 354.7739 0026185 167.9402 192.2450 15.60404719643094
COSMOS 2251 DEB         
1 34908U 93036ADD 26066.42101571  .00002683  00000+0  89118-3 0  9994
2 34908  74.0554 227.9973 0041156 226.3573 162.3331 14.37752124884965
COSMOS 2251 DEB         
1 34909U 93036ADE 26065.55456480  .00003811  00000+0  49722-3 0  9991
2 34909  74.0111 271.7027 0082461  24.7050 335.8039 14.78522739680908
COSMOS 2251 DEB         
1 34910U 93036ADF 26066.16080653  .00000947  00000+0  97848-3 0  9995
2 34910  73.8771 328.1931 0465868  72.6055  74.0569 13.37828322826535
COSMOS 2251 DEB         
1 34911U 93036ADG 26066.50403480  .00000712  00000+0  14921-3 0  9992
2 34911  74.0387  83.1754 0084027 188.8626 324.5598 14.59516757898233
COSMOS 2251 DEB         
1 34913U 93036ADJ 26065.86900526  .00000152  00000+0  62821-4 0  9996
2 34913  74.0277 128.3247 0021896 223.3864 256.2288 14.34666265663944
